{
  "type": "FeatureCollection",
  "features": [
    {
      "type": "Feature",
      "properties": {
        "norad_id": 34721,
        "name": "COSMOS 2251 DEB",
        "group": "cosmos-2251-debris",
        "lat": 66.41255279553033,
        "lon": 121.46187865612599,
        "alt_km": 1060.8824151754307,
        "timestamp": "2025-12-03T04:52:30.033678+00:00",
        "meta_object_name": "COSMOS 2251 DEB",
        "meta_object_id": "1993-036YP",
        "meta_epoch": "2025-12-02T07:48:06.027264",
        "meta_mean_motion": 13.96762831,
        "meta_eccentricity": 0.022397,
        "meta_inclination": 73.9234,
        "meta_ra_of_asc_node": 344.3187,
        "meta_arg_of_pericenter": 285.1168,
        "meta_mean_anomaly": 89.0422,
        "meta_ephemeris_type": 0,
        "meta_classification_type": "U",
        "meta_norad_cat_id": 34721,
        "meta_element_set_no": 999,
        "meta_rev_at_epoch": 85004,
        "meta_bstar": 0.0021289,
        "meta_mean_motion_dot": 3.628e-05,
        "meta_mean_motion_ddot": 0,
        "tle_line1": "1 34721U 93036YP  25336.32506976  .00003628  00000+0  21289-2 0  9997",
        "tle_line2": "2 34721  73.9234 344.3187 0223970 285.1168  89.0422 13.96762831850049"
      },
      "geometry": {
        "type": "Point",
        "coordinates": [
          121.46187865612599,
          66.41255279553033
        ]
      }
    },
    {
      "type": "Feature",
      "properties": {
        "norad_id": 34722,
        "name": "COSMOS 2251 DEB",
        "group": "cosmos-2251-debris",
        "lat": 6.033665338667297,
        "lon": 171.32617618734855,
        "alt_km": 887.5589489889462,
        "timestamp": "2025-12-03T04:52:30.033689+00:00",
        "meta_object_name": "COSMOS 2251 DEB",
        "meta_object_id": "1993-036YQ",
        "meta_epoch": "2025-12-02T18:41:38.267232",
        "meta_mean_motion": 14.11879532,
        "meta_eccentricity": 0.0167509,
        "meta_inclination": 73.8718,
        "meta_ra_of_asc_node": 353.835,
        "meta_arg_of_pericenter": 281.1063,
        "meta_mean_anomaly": 259.02,
        "meta_ephemeris_type": 0,
        "meta_classification_type": "U",
        "meta_norad_cat_id": 34722,
        "meta_element_set_no": 999,
        "meta_rev_at_epoch": 86104,
        "meta_bstar": 0.0010542,
        "meta_mean_motion_dot": 2.171e-05,
        "meta_mean_motion_ddot": 0,
        "tle_line1": "1 34722U 93036YQ  25336.77891513  .00002171  00000+0  10542-2 0  9993",
        "tle_line2": "2 34722  73.8718 353.8350 0167509 281.1063 259.0200 14.11879532861048"
      },
      "geometry": {
        "type": "Point",
        "coordinates": [
          171.32617618734855,
          6.033665338667297
        ]
      }
    },
    {
      "type": "Feature",
      "properties": {
        "norad_id": 34726,
        "name": "COSMOS 2251 DEB",
        "group": "cosmos-2251-debris",
        "lat": 12.21244389735897,
        "lon": 8.070171160382012,
        "alt_km": 720.6731899499582,
        "timestamp": "2025-12-03T04:52:30.033700+00:00",
        "meta_object_name": "COSMOS 2251 DEB",
        "meta_object_id": "1993-036YU",
        "meta_epoch": "2025-12-02T12:21:53.330976",
        "meta_mean_motion": 14.59418745,
        "meta_eccentricity": 0.00425429,
        "meta_inclination": 74.0292,
        "meta_ra_of_asc_node": 5.828,
        "meta_arg_of_pericenter": 159.654,
        "meta_mean_anomaly": 200.6333,
        "meta_ephemeris_type": 0,
        "meta_classification_type": "U",
        "meta_norad_cat_id": 34726,
        "meta_element_set_no": 999,
        "meta_rev_at_epoch": 88353,
        "meta_bstar": 0.00052653904,
        "meta_mean_motion_dot": 2.497e-05,
        "meta_mean_motion_ddot": 0,
        "tle_line1": "1 34726U 93036YU  25336.51520059  .00002497  00000+0  52654-3 0  9995",
        "tle_line2": "2 34726  74.0292   5.8280 0042542 159.6540 200.6333 14.59418745883530"
      },
      "geometry": {
        "type": "Point",
        "coordinates": [
          8.070171160382012,
          12.21244389735897
        ]
      }
    },
    {
      "type": "Feature",
      "properties": {
        "norad_id": 34728,
        "name": "COSMOS 2251 DEB",
        "group": "cosmos-2251-debris",
        "lat": -41.12963641611237,
        "lon": 104.80023334660581,
        "alt_km": 690.476011547692,
        "timestamp": "2025-12-03T04:52:30.033710+00:00",
        "meta_object_name": "COSMOS 2251 DEB",
        "meta_object_id": "1993-036YW",
        "meta_epoch": "2025-11-30T13:49:42.045312",
        "meta_mean_motion": 14.70651405,
        "meta_eccentricity": 0.0040689,
        "meta_inclination": 74.0169,
        "meta_ra_of_asc_node": 275.4077,
        "meta_arg_of_pericenter": 76.4781,
        "meta_mean_anomaly": 284.0918,
        "meta_ephemeris_type": 0,
        "meta_classification_type": "U",
        "meta_norad_cat_id": 34728,
        "meta_element_set_no": 999,
        "meta_rev_at_epoch": 88621,
        "meta_bstar": 0.00075074,
        "meta_mean_motion_dot": 4.599e-05,
        "meta_mean_motion_ddot": 0,
        "tle_line1": "1 34728U 93036YW  25334.57618108  .00004599  00000+0  75074-3 0  9990",
        "tle_line2": "2 34728  74.0169 275.4077 0040689  76.4781 284.0918 14.70651405886215"
      },
      "geometry": {
        "type": "Point",
        "coordinates": [
          104.80023334660581,
          -41.12963641611237
        ]
      }
    },
    {
      "type": "Feature",
      "properties": {
        "norad_id": 34729,
        "name": "COSMOS 2251 DEB",
        "group": "cosmos-2251-debris",
        "lat": -11.006470806627796,
        "lon": -159.48910406692858,
        "alt_km": 620.1985663645391,
        "timestamp": "2025-12-03T04:52:30.033721+00:00",
        "meta_object_name": "COSMOS 2251 DEB",
        "meta_object_id": "1993-036YX",
        "meta_epoch": "2025-12-02T03:59:29.960736",
        "meta_mean_motion": 14.82315258,
        "meta_eccentricity": 0.00122865,
        "meta_inclination": 74.0195,
        "meta_ra_of_asc_node": 19.3666,
        "meta_arg_of_pericenter": 145.0908,
        "meta_mean_anomaly": 275.6495,
        "meta_ephemeris_type": 0,
        "meta_classification_type": "U",
        "meta_norad_cat_id": 34729,
        "meta_element_set_no": 999,
        "meta_rev_at_epoch": 88301,
        "meta_bstar": 0.0020682703,
        "meta_mean_motion_dot": 0.00016565,
        "meta_mean_motion_ddot": 0,
        "tle_line1": "1 34729U 93036YX  25336.16631899  .00016565  00000+0  20683-2 0  9991",
        "tle_line2": "2 34729  74.0195  19.3666 0012286 145.0908 275.6495 14.82315258883017"
      },
      "geometry": {
        "type": "Point",
        "coordinates": [
          -159.48910406692858,
          -11.006470806627796
        ]
      }
    },
    {
      "type": "Feature",
      "properties": {
        "norad_id": 34732,
        "name": "COSMOS 2251 DEB",
        "group": "cosmos-2251-debris",
        "lat": -7.2222921766233785,
        "lon": -66.91592269350357,
        "alt_km": 731.1303847319432,
        "timestamp": "2025-12-03T04:52:30.033731+00:00",
        "meta_object_name": "COSMOS 2251 DEB",
        "meta_object_id": "1993-036ZA",
        "meta_epoch": "2025-12-02T02:01:16.053312",
        "meta_mean_motion": 14.47279623,
        "meta_eccentricity": 0.00404868,
        "meta_inclination": 74.044,
        "meta_ra_of_asc_node": 113.0964,
        "meta_arg_of_pericenter": 266.0706,
        "meta_mean_anomaly": 214.3828,
        "meta_ephemeris_type": 0,
        "meta_classification_type": "U",
        "meta_norad_cat_id": 34732,
        "meta_element_set_no": 999,
        "meta_rev_at_epoch": 87989,
        "meta_bstar": 0.0001843837,
        "meta_mean_motion_dot": 6.53e-06,
        "meta_mean_motion_ddot": 0,
        "tle_line1": "1 34732U 93036ZA  25336.08421358  .00000653  00000+0  18438-3 0  9990",
        "tle_line2": "2 34732  74.0440 113.0964 0040486 266.0706 214.3828 14.47279623879897"
      },
      "geometry": {
        "type": "Point",
        "coordinates": [
          -66.91592269350357,
          -7.2222921766233785
        ]
      }
    },
    {
      "type": "Feature",
      "properties": {
        "norad_id": 34736,
        "name": "COSMOS 2251 DEB",
        "group": "cosmos-2251-debris",
        "lat": -73.78096014540606,
        "lon": -42.579265596588876,
        "alt_km": 455.83198029395317,
        "timestamp": "2025-12-03T04:52:30.033741+00:00",
        "meta_object_name": "COSMOS 2251 DEB",
        "meta_object_id": "1993-036ZE",
        "meta_epoch": "2025-12-02T15:13:54.959232",
        "meta_mean_motion": 15.38442922,
        "meta_eccentricity": 0.00147134,
        "meta_inclination": 74.0053,
        "meta_ra_of_asc_node": 58.2071,
        "meta_arg_of_pericenter": 355.616,
        "meta_mean_anomaly": 4.4916,
        "meta_ephemeris_type": 0,
        "meta_classification_type": "U",
        "meta_norad_cat_id": 34736,
        "meta_element_set_no": 999,
        "meta_rev_at_epoch": 88292,
        "meta_bstar": 0.0093586267,
        "meta_mean_motion_dot": 0.00373994,
        "meta_mean_motion_ddot": 0,
        "tle_line1": "1 34736U 93036ZE  25336.63466388  .00373994  00000+0  93586-2 0  9994",
        "tle_line2": "2 34736  74.0053  58.2071 0014713 355.6160   4.4916 15.38442922882922"
      },
      "geometry": {
        "type": "Point",
        "coordinates": [
          -42.579265596588876,
          -73.78096014540606
        ]
      }
    }
  ]
}